start=new Date('2022-03-20T00:00:00.000Z').valueOf();
sats=[{"REF_FRAME":"TEME","ECCENTRICITY":"0.00011570","EPHEMERIS_TYPE":"0","SITE":"AFETR","LAUNCH_DATE":"2022-03-03","MEAN_MOTION":"15.73223653","ELEMENT_SET_NO":"999","APOAPSIS":"350.471","MEAN_ELEMENT_THEORY":"SGP4","TLE_LINE2":"2 51868  53.2189  63.4341 0001157  68.4034 251.4404 15.73223653  3255","NORAD_CAT_ID":"51868","TLE_LINE1":"1 51868U 22022S   22078.91668981  .00000089  00000-0  50483-5 0  9995","RCS_SIZE":"LARGE","FILE":"3366144","OBJECT_TYPE":"PAYLOAD","OBJECT_NAME":"STARLINK-3578","CLASSIFICATION_TYPE":"U","COUNTRY_CODE":"US","DECAY_DATE":null,"MEAN_MOTION_DDOT":"0.0000000000000","PERIOD":"91.532","TIME_SYSTEM":"UTC","CENTER_NAME":"EARTH","BSTAR":"0.00000504830000","MEAN_MOTION_DOT":"0.00000089","ARG_OF_PERICENTER":"68.4034","PERIAPSIS":"348.914","EPOCH":"2022-03-19T22:00:01.999584","MEAN_ANOMALY":"251.4404","RA_OF_ASC_NODE":"63.4341","REV_AT_EPOCH":"325","INCLINATION":"53.2189","GP_ID":"199189073","OBJECT_ID":"2022-022S","SEMIMAJOR_AXIS":"6727.828"},{"MEAN_ANOMALY":"245.0140","MEAN_MOTION_DOT":"0.00642489","ARG_OF_PERICENTER":"78.0529","EPOCH":"2022-03-19T22:00:01.999584","PERIAPSIS":"350.060","REV_AT_EPOCH":"322","INCLINATION":"53.2174","RA_OF_ASC_NODE":"63.4207","OBJECT_ID":"2022-022T","SEMIMAJOR_AXIS":"6729.109","GP_ID":"199189320","EPHEMERIS_TYPE":"0","SITE":"AFETR","REF_FRAME":"TEME","ECCENTRICITY":"0.00013580","NORAD_CAT_ID":"51869","TLE_LINE1":"1 51869U 22022T   22078.91668981  .00642489  00000-0  43186-2 0  9991","LAUNCH_DATE":"2022-03-03","MEAN_MOTION":"15.72774360","APOAPSIS":"351.888","ELEMENT_SET_NO":"999","MEAN_ELEMENT_THEORY":"SGP4","TLE_LINE2":"2 51869  53.2174  63.4207 0001358  78.0529 245.0140 15.72774360  3228","CLASSIFICATION_TYPE":"U","OBJECT_NAME":"STARLINK-3588","DECAY_DATE":null,"COUNTRY_CODE":"US","MEAN_MOTION_DDOT":"0.0000000000000","PERIOD":"91.558","OBJECT_TYPE":"PAYLOAD","FILE":"3366144","RCS_SIZE":"LARGE","BSTAR":"0.00431860000000","TIME_SYSTEM":"UTC","CENTER_NAME":"EARTH"},{"EPHEMERIS_TYPE":"0","SITE":"AFETR","REF_FRAME":"TEME","ECCENTRICITY":"0.00017700","TLE_LINE1":"1 51870U 22022U   22078.91668981  .00709788  00000-0  47396-2 0  9996","NORAD_CAT_ID":"51870","APOAPSIS":"352.274","ELEMENT_SET_NO":"999","MEAN_MOTION":"15.72735992","LAUNCH_DATE":"2022-03-03","TLE_LINE2":"2 51870  53.2173  63.4229 0001770  73.1808 248.6296 15.72735992  3259","MEAN_ELEMENT_THEORY":"SGP4","MEAN_MOTION_DDOT":"0.0000000000000","DECAY_DATE":null,"COUNTRY_CODE":"US","CLASSIFICATION_TYPE":"U","OBJECT_NAME":"STARLINK-3591","PERIOD":"91.560","OBJECT_TYPE":"PAYLOAD","FILE":"3366144","RCS_SIZE":"LARGE","BSTAR":"0.00473960000000","TIME_SYSTEM":"UTC","CENTER_NAME":"EARTH","MEAN_ANOMALY":"248.6296","MEAN_MOTION_DOT":"0.00709788","PERIAPSIS":"349.892","EPOCH":"2022-03-19T22:00:01.999584","ARG_OF_PERICENTER":"73.1808","REV_AT_EPOCH":"325","INCLINATION":"53.2173","RA_OF_ASC_NODE":"63.4229","OBJECT_ID":"2022-022U","SEMIMAJOR_AXIS":"6729.218","GP_ID":"199189600"},{"GP_ID":"199188853","SEMIMAJOR_AXIS":"6729.168","OBJECT_ID":"2022-022V","ARG_OF_PERICENTER":"67.7338","PERIAPSIS":"349.815","EPOCH":"2022-03-19T22:00:01.999584","MEAN_MOTION_DOT":"0.00675118","MEAN_ANOMALY":"255.9851","RA_OF_ASC_NODE":"63.4194","INCLINATION":"53.2174","REV_AT_EPOCH":"325","RCS_SIZE":"LARGE","FILE":"3366144","OBJECT_TYPE":"PAYLOAD","PERIOD":"91.559","OBJECT_NAME":"STARLINK-3567","CLASSIFICATION_TYPE":"U","DECAY_DATE":null,"MEAN_MOTION_DDOT":"0.0000000000000","COUNTRY_CODE":"US","CENTER_NAME":"EARTH","TIME_SYSTEM":"UTC","BSTAR":"0.00452400000000","ECCENTRICITY":"0.00018100","REF_FRAME":"TEME","SITE":"AFETR","EPHEMERIS_TYPE":"0","MEAN_ELEMENT_THEORY":"SGP4","TLE_LINE2":"2 51871  53.2174  63.4194 0001810  67.7338 255.9851 15.72753555  3257","LAUNCH_DATE":"2022-03-03","MEAN_MOTION":"15.72753555","ELEMENT_SET_NO":"999","APOAPSIS":"352.251","NORAD_CAT_ID":"51871","TLE_LINE1":"1 51871U 22022V   22078.91668981  .00675118  00000-0  45240-2 0  9992"},{"GP_ID":"199189431","SEMIMAJOR_AXIS":"6728.555","OBJECT_ID":"2022-022W","EPOCH":"2022-03-19T22:00:01.999584","PERIAPSIS":"349.507","ARG_OF_PERICENTER":"36.5242","MEAN_MOTION_DOT":"0.00390890","MEAN_ANOMALY":"285.7594","RA_OF_ASC_NODE":"63.4214","INCLINATION":"53.2174","REV_AT_EPOCH":"325","RCS_SIZE":"LARGE","FILE":"3366144","OBJECT_TYPE":"PAYLOAD","PERIOD":"91.547","DECAY_DATE":null,"MEAN_MOTION_DDOT":"0.0000000000000","COUNTRY_CODE":"US","CLASSIFICATION_TYPE":"U","OBJECT_NAME":"STARLINK-3554","CENTER_NAME":"EARTH","TIME_SYSTEM":"UTC","BSTAR":"0.00268830000000","ECCENTRICITY":"0.00013570","REF_FRAME":"TEME","SITE":"AFETR","EPHEMERIS_TYPE":"0","TLE_LINE2":"2 51872  53.2174  63.4214 0001357  36.5242 285.7594 15.72968674  3250","MEAN_ELEMENT_THEORY":"SGP4","APOAPSIS":"351.333","ELEMENT_SET_NO":"999","MEAN_MOTION":"15.72968674","LAUNCH_DATE":"2022-03-03","TLE_LINE1":"1 51872U 22022W   22078.91668981  .00390890  00000-0  26883-2 0  9996","NORAD_CAT_ID":"51872"},{"CENTER_NAME":"EARTH","TIME_SYSTEM":"UTC","BSTAR":"0.00000546010000","OBJECT_TYPE":"PAYLOAD","FILE":"3366144","RCS_SIZE":"MEDIUM","PERIOD":"91.532","OBJECT_NAME":"STARLINK-3582","CLASSIFICATION_TYPE":"U","DECAY_DATE":null,"COUNTRY_CODE":"US","MEAN_MOTION_DDOT":"0.0000000000000","MEAN_ELEMENT_THEORY":"SGP4","TLE_LINE2":"2 51873  53.2192  63.4234 0001243  65.3811 260.1977 15.73221737  3254","LAUNCH_DATE":"2022-03-03","MEAN_MOTION":"15.73221737","APOAPSIS":"350.534","ELEMENT_SET_NO":"999","NORAD_CAT_ID":"51873","TLE_LINE1":"1 51873U 22022X   22078.91668981  .00000147  00000-0  54601-5 0  9992","ECCENTRICITY":"0.00012430","REF_FRAME":"TEME","SITE":"AFETR","EPHEMERIS_TYPE":"0","GP_ID":"199188964","SEMIMAJOR_AXIS":"6727.833","OBJECT_ID":"2022-022X","RA_OF_ASC_NODE":"63.4234","INCLINATION":"53.2192","REV_AT_EPOCH":"325","ARG_OF_PERICENTER":"65.3811","PERIAPSIS":"348.862","EPOCH":"2022-03-19T22:00:01.999584","MEAN_MOTION_DOT":"0.00000147","MEAN_ANOMALY":"260.1977"},{"GP_ID":"199189516","OBJECT_ID":"2022-022Y","SEMIMAJOR_AXIS":"6727.818","RA_OF_ASC_NODE":"63.4251","REV_AT_EPOCH":"322","INCLINATION":"53.2189","MEAN_MOTION_DOT":"-0.00014603","ARG_OF_PERICENTER":"59.6108","PERIAPSIS":"348.906","EPOCH":"2022-03-19T22:00:01.999584","MEAN_ANOMALY":"264.6928","TIME_SYSTEM":"UTC","CENTER_NAME":"EARTH","BSTAR":"-0.00009969400000","OBJECT_TYPE":"PAYLOAD","FILE":"3366144","RCS_SIZE":"LARGE","OBJECT_NAME":"STARLINK-3574","CLASSIFICATION_TYPE":"U","COUNTRY_CODE":"US","DECAY_DATE":null,"MEAN_MOTION_DDOT":"0.0000000000000","PERIOD":"91.532","MEAN_MOTION":"15.73227169","LAUNCH_DATE":"2022-03-03","ELEMENT_SET_NO":"999","APOAPSIS":"350.460","TLE_LINE2":"2 51874  53.2189  63.4251 0001155  59.6108 264.6928 15.73227169  3224","MEAN_ELEMENT_THEORY":"SGP4","NORAD_CAT_ID":"51874","TLE_LINE1":"1 51874U 22022Y   22078.91668981 -.00014603  00000-0 -99694-4 0  9997","REF_FRAME":"TEME","ECCENTRICITY":"0.00011550","EPHEMERIS_TYPE":"0","SITE":"AFETR"},{"SEMIMAJOR_AXIS":"6729.158","OBJECT_ID":"2022-022Z","GP_ID":"199189211","MEAN_ANOMALY":"256.4197","ARG_OF_PERICENTER":"70.4895","EPOCH":"2022-03-19T22:00:01.999584","PERIAPSIS":"349.822","MEAN_MOTION_DOT":"0.00670244","INCLINATION":"53.2174","REV_AT_EPOCH":"326","RA_OF_ASC_NODE":"63.4130","PERIOD":"91.559","CLASSIFICATION_TYPE":"U","OBJECT_NAME":"STARLINK-3585","DECAY_DATE":null,"COUNTRY_CODE":"US","MEAN_MOTION_DDOT":"0.0000000000000","FILE":"3366144","RCS_SIZE":"LARGE","OBJECT_TYPE":"PAYLOAD","BSTAR":"0.00449330000000","CENTER_NAME":"EARTH","TIME_SYSTEM":"UTC","SITE":"AFETR","EPHEMERIS_TYPE":"0","ECCENTRICITY":"0.00017840","REF_FRAME":"TEME","NORAD_CAT_ID":"51875","TLE_LINE1":"1 51875U 22022Z   22078.91668981  .00670244  00000-0  44933-2 0  9999","MEAN_ELEMENT_THEORY":"SGP4","TLE_LINE2":"2 51875  53.2174  63.4130 0001784  70.4895 256.4197 15.72757304  3266","MEAN_MOTION":"15.72757304","LAUNCH_DATE":"2022-03-03","ELEMENT_SET_NO":"999","APOAPSIS":"352.223"},{"MEAN_ANOMALY":"264.5911","EPOCH":"2022-03-19T22:00:01.999584","PERIAPSIS":"348.908","ARG_OF_PERICENTER":"60.2879","MEAN_MOTION_DOT":"-0.00021300","INCLINATION":"53.2190","REV_AT_EPOCH":"325","RA_OF_ASC_NODE":"63.4242","SEMIMAJOR_AXIS":"6727.799","OBJECT_ID":"2022-022AA","GP_ID":"199189074","SITE":"AFETR","EPHEMERIS_TYPE":"0","ECCENTRICITY":"0.00011240","REF_FRAME":"TEME","TLE_LINE1":"1 51876U 22022AA  22078.91668981 -.00021300  00000-0 -14752-3 0  9992","NORAD_CAT_ID":"51876","MEAN_ELEMENT_THEORY":"SGP4","TLE_LINE2":"2 51876  53.2190  63.4242 0001124  60.2879 264.5911 15.73233837  3250","ELEMENT_SET_NO":"999","APOAPSIS":"350.420","LAUNCH_DATE":"2022-03-03","MEAN_MOTION":"15.73233837","PERIOD":"91.531","COUNTRY_CODE":"US","DECAY_DATE":null,"MEAN_MOTION_DDOT":"0.0000000000000","CLASSIFICATION_TYPE":"U","OBJECT_NAME":"STARLINK-3583","FILE":"3366144","OBJECT_TYPE":"PAYLOAD","RCS_SIZE":"LARGE","BSTAR":"-0.00014752000000","CENTER_NAME":"EARTH","TIME_SYSTEM":"UTC"},{"TLE_LINE1":"1 51877U 22022AB  22078.91668981  .00075475  00000-0  53748-3 0  9991","NORAD_CAT_ID":"51877","APOAPSIS":"350.586","ELEMENT_SET_NO":"999","MEAN_MOTION":"15.73195007","LAUNCH_DATE":"2022-03-03","TLE_LINE2":"2 51877  53.2192  63.4185 0001207  54.5340 273.5953 15.73195007  3230","MEAN_ELEMENT_THEORY":"SGP4","EPHEMERIS_TYPE":"0","SITE":"AFETR","REF_FRAME":"TEME","ECCENTRICITY":"0.00012070","BSTAR":"0.00053748000000","TIME_SYSTEM":"UTC","CENTER_NAME":"EARTH","DECAY_DATE":null,"COUNTRY_CODE":"US","MEAN_MOTION_DDOT":"0.0000000000000","OBJECT_NAME":"STARLINK-3556","CLASSIFICATION_TYPE":"U","PERIOD":"91.533","FILE":"3366144","RCS_SIZE":"LARGE","OBJECT_TYPE":"PAYLOAD","REV_AT_EPOCH":"323","INCLINATION":"53.2192","RA_OF_ASC_NODE":"63.4185","MEAN_ANOMALY":"273.5953","MEAN_MOTION_DOT":"0.00075475","PERIAPSIS":"348.962","EPOCH":"2022-03-19T22:00:01.999584","ARG_OF_PERICENTER":"54.5340","OBJECT_ID":"2022-022AB","SEMIMAJOR_AXIS":"6727.909","GP_ID":"199189321"}];
